{"fetched_at":"2026-07-21T07:06:33.367Z","source":"https://celestrak.org/NORAD/elements/gp.php?GROUP=spire&FORMAT=JSON","constellation":"spire","records":[{"OBJECT_NAME":"LEMUR-2-MYRA","OBJECT_ID":"2025-276EC","EPOCH":"2026-07-20T03:18:04.328640","CLASSIFICATION_TYPE":"U","MEAN_MOTION":15.00621723,"ECCENTRICITY":0.00185732,"INCLINATION":97.5221,"RA_OF_ASC_NODE":270.9458,"ARG_OF_PERICENTER":39.122,"MEAN_ANOMALY":321.1343,"EPHEMERIS_TYPE":0,"NORAD_CAT_ID":66787,"ELEMENT_SET_NO":999,"REV_AT_EPOCH":3515,"BSTAR":0.00026939967,"MEAN_MOTION_DOT":0.00003359,"MEAN_MOTION_DDOT":0},{"OBJECT_NAME":"LEMUR-2 FIKRETDENGIZ","OBJECT_ID":"2026-004A","EPOCH":"2026-07-20T22:46:18.512832","CLASSIFICATION_TYPE":"U","MEAN_MOTION":14.88543101,"ECCENTRICITY":0.00097849,"INCLINATION":97.8036,"RA_OF_ASC_NODE":199.9951,"ARG_OF_PERICENTER":39.335,"MEAN_ANOMALY":320.8576,"EPHEMERIS_TYPE":0,"NORAD_CAT_ID":67363,"ELEMENT_SET_NO":999,"REV_AT_EPOCH":2830,"BSTAR":0.00032833972,"MEAN_MOTION_DOT":0.00003002,"MEAN_MOTION_DDOT":0},{"OBJECT_NAME":"TWILIGHT-1 OBJECT B","OBJECT_ID":"2026-004B","EPOCH":"2026-07-20T22:07:00.338880","CLASSIFICATION_TYPE":"U","MEAN_MOTION":14.87805783,"ECCENTRICITY":0.00093204,"INCLINATION":97.8078,"RA_OF_ASC_NODE":199.9657,"ARG_OF_PERICENTER":29.1912,"MEAN_ANOMALY":330.9824,"EPHEMERIS_TYPE":0,"NORAD_CAT_ID":67364,"ELEMENT_SET_NO":999,"REV_AT_EPOCH":2830,"BSTAR":0.00012710287,"MEAN_MOTION_DOT":0.00001107,"MEAN_MOTION_DDOT":0},{"OBJECT_NAME":"LEMUR-2-MARIO-SOUSA","OBJECT_ID":"2026-004C","EPOCH":"2026-07-20T22:16:07.894560","CLASSIFICATION_TYPE":"U","MEAN_MOTION":14.88755561,"ECCENTRICITY":0.00094129,"INCLINATION":97.8008,"RA_OF_ASC_NODE":199.9694,"ARG_OF_PERICENTER":41.0009,"MEAN_ANOMALY":319.1914,"EPHEMERIS_TYPE":0,"NORAD_CAT_ID":67365,"ELEMENT_SET_NO":999,"REV_AT_EPOCH":2831,"BSTAR":0.00033717189,"MEAN_MOTION_DOT":0.000031,"MEAN_MOTION_DDOT":0},{"OBJECT_NAME":"LEMUR-2-SONNENBLUME","OBJECT_ID":"2026-004E","EPOCH":"2026-07-20T22:21:47.116512","CLASSIFICATION_TYPE":"U","MEAN_MOTION":14.88471798,"ECCENTRICITY":0.00090568,"INCLINATION":97.8004,"RA_OF_ASC_NODE":199.9432,"ARG_OF_PERICENTER":41.9708,"MEAN_ANOMALY":318.2201,"EPHEMERIS_TYPE":0,"NORAD_CAT_ID":67367,"ELEMENT_SET_NO":999,"REV_AT_EPOCH":2831,"BSTAR":0.00018964181,"MEAN_MOTION_DOT":0.00001707,"MEAN_MOTION_DDOT":0},{"OBJECT_NAME":"LEMUR-2-WOBLER","OBJECT_ID":"2026-004F","EPOCH":"2026-07-20T22:04:59.096352","CLASSIFICATION_TYPE":"U","MEAN_MOTION":14.88723615,"ECCENTRICITY":0.00090422,"INCLINATION":97.8057,"RA_OF_ASC_NODE":200.0887,"ARG_OF_PERICENTER":33.5965,"MEAN_ANOMALY":326.5824,"EPHEMERIS_TYPE":0,"NORAD_CAT_ID":67368,"ELEMENT_SET_NO":999,"REV_AT_EPOCH":2831,"BSTAR":0.00026153397,"MEAN_MOTION_DOT":0.0000239,"MEAN_MOTION_DDOT":0},{"OBJECT_NAME":"LEMUR-2-GRAM-E-SUE","OBJECT_ID":"2026-004H","EPOCH":"2026-07-20T21:54:16.811712","CLASSIFICATION_TYPE":"U","MEAN_MOTION":14.88605933,"ECCENTRICITY":0.00082727,"INCLINATION":97.7991,"RA_OF_ASC_NODE":199.9412,"ARG_OF_PERICENTER":45.2715,"MEAN_ANOMALY":314.9175,"EPHEMERIS_TYPE":0,"NORAD_CAT_ID":67370,"ELEMENT_SET_NO":999,"REV_AT_EPOCH":2831,"BSTAR":0.00016658006,"MEAN_MOTION_DOT":0.00001498,"MEAN_MOTION_DDOT":0},{"OBJECT_NAME":"LEMUR-2-KATIE","OBJECT_ID":"2026-004AA","EPOCH":"2026-07-20T22:19:47.397216","CLASSIFICATION_TYPE":"U","MEAN_MOTION":14.9028045,"ECCENTRICITY":0.00029457,"INCLINATION":97.805,"RA_OF_ASC_NODE":200.5292,"ARG_OF_PERICENTER":19.5341,"MEAN_ANOMALY":340.5989,"EPHEMERIS_TYPE":0,"NORAD_CAT_ID":67387,"ELEMENT_SET_NO":999,"REV_AT_EPOCH":2833,"BSTAR":0.00034503989,"MEAN_MOTION_DOT":0.00003295,"MEAN_MOTION_DDOT":0},{"OBJECT_NAME":"LEMUR-2-HCS-BAZUS","OBJECT_ID":"2026-004AB","EPOCH":"2026-07-20T22:17:22.195968","CLASSIFICATION_TYPE":"U","MEAN_MOTION":14.90287445,"ECCENTRICITY":0.0002451,"INCLINATION":97.8039,"RA_OF_ASC_NODE":200.5051,"ARG_OF_PERICENTER":20.8536,"MEAN_ANOMALY":339.2782,"EPHEMERIS_TYPE":0,"NORAD_CAT_ID":67388,"ELEMENT_SET_NO":999,"REV_AT_EPOCH":2833,"BSTAR":0.00028544109,"MEAN_MOTION_DOT":0.00002717,"MEAN_MOTION_DDOT":0}]}
